[{"OBJECT_NAME":"SAUDICOMSAT 3","OBJECT_ID":"2007-012J","EPOCH":"2026-03-09T21:56:33.601056","MEAN_MOTION":14.70526386,"ECCENTRICITY":0.0039477,"INCLINATION":98.305,"RA_OF_ASC_NODE":42.4048,"ARG_OF_PERICENTER":7.9063,"MEAN_ANOMALY":352.2756,"EPHEMERIS_TYPE":0,"CLASSIFICATION_TYPE":"U","NORAD_CAT_ID":31125,"ELEMENT_SET_NO":999,"REV_AT_EPOCH":1023,"BSTAR":0.00027068217,"MEAN_MOTION_DOT":1.608e-5,"MEAN_MOTION_DDOT":0},{"OBJECT_NAME":"CZ-4B DEB","OBJECT_ID":"1999-057MP","EPOCH":"2026-03-09T18:42:28.186560","MEAN_MOTION":14.68009147,"ECCENTRICITY":0.00269082,"INCLINATION":98.4721,"RA_OF_ASC_NODE":102.8309,"ARG_OF_PERICENTER":37.8833,"MEAN_ANOMALY":19.5856,"EPHEMERIS_TYPE":0,"CLASSIFICATION_TYPE":"U","NORAD_CAT_ID":27536,"ELEMENT_SET_NO":999,"REV_AT_EPOCH":27014,"BSTAR":0.00084118815,"MEAN_MOTION_DOT":4.797e-5,"MEAN_MOTION_DDOT":0}]
